SPACEBEE-5              
1 43817U 18099BM  22232.17067333  .00008176  00000+0  62688-3 0  9995
2 43817  97.6292 302.1919 0007335  55.6728 304.5190 15.02055101202338
SPACEBEE-6              
1 43818U 18099BN  22232.64675787  .00003817  00000+0  31814-3 0  9990
2 43818  97.6251 300.3483 0012215  39.2802 320.9305 14.99143390202450
SHIELDS 1               
1 43850U 18104B   22232.86282307  .00003284  00000+0  13377-3 0  9991
2 43850  85.0303   9.4611 0015148  36.1054 324.1208 15.23960333204315
STF-1                   
1 43852U 18104D   22232.87695429  .00007732  00000+0  28362-3 0  9999
2 43852  85.0326   9.5675 0013797  46.7589 313.4805 15.27696233204370
ZACUBE-2                
1 43907U 18111AH  22232.88616891  .00006350  00000+0  22975-3 0  9994
2 43907  97.1813 116.9047 0018547 205.7092 283.9402 15.28596889203130
LUME 1                  
1 43908U 18111AJ  22232.63182483  .00008094  00000+0  26816-3 0  9998
2 43908  97.1821 118.4368 0017387 198.5705 161.4904 15.31399596203210
AOBA VELOX-IV           
1 43940U 19003J   22232.85738393  .00016914  00000+0  41804-3 0  9990
2 43940  97.1221 266.9200 0014313 268.6530  91.3077 15.40436151200033
MOVE-IIB                
1 44398U 19038N   22232.90766143  .00010711  00000+0  50056-3 0  9994
2 44398  97.6316 202.9068 0018925 265.0606  94.8469 15.19821965172826
SONATE                  
1 44400U 19038Q   22232.85929978  .00003892  00000+0  21034-3 0  9995
2 44400  97.6446 201.6872 0021555 272.0361  87.8404 15.15117568172680
LUCKY-7                 
1 44406U 19038W   22232.48687341  .00004292  00000+0  22512-3 0  9992
2 44406  97.6429 201.8959 0020485 269.5070  90.3815 15.16134887172661
BEESAT 9                
1 44412U 19038AC  22231.43328469  .00007864  00000+0  39212-3 0  9999
2 44412  97.6400 201.2293 0017847 277.0900  82.8304 15.17681581172248
JAISAT-1                
1 44419U 19038F   22232.84939016  .00005445  00000+0  26902-3 0  9993
2 44419  97.6404 203.5458 0016818 268.2046  91.7261 15.18171838172822
DUCHIFAT-3              
1 44854U 19089C   22232.77442440  .00002789  00000+0  21794-3 0  9996
2 44854  36.9646  78.9205 0008414  13.0869  85.9219 15.01420748147600
EYESAT-NANO             
1 44877U 19092E   22232.76790228  .00008678  00000+0  36472-3 0  9996
2 44877  97.4654  56.7366 0012340 126.8180 233.4191 15.23595859148150
ORBITAL FACTORY 2 (OF-2)
1 45113U 19071C   22232.84441757  .00021155  00000+0  40011-3 0  9995
2 45113  51.6374 101.8656 0008954  56.0856 304.0982 15.48311402143345
M2 PATHFINDER           
1 45727U 20037E   22232.93260770  .00001231  00000+0  12633-3 0  9996
2 45727  97.7394  47.2341 0012018 177.6445 182.4829 14.92165141116447
NETSAT-4                
1 46504U 20068U   22232.79631284  .00001864  00000+0  14037-3 0  9992
2 46504  97.7273 172.4823 0012982 101.3996 258.8692 15.03696838103715
NETSAT-3                
1 46505U 20068V   22232.81350084  .00001973  00000+0  14841-3 0  9996
2 46505  97.7267 172.4109 0012733 108.3782 251.8830 15.03663205103720
NETSAT-1                
1 46506U 20068W   22232.83231049  .00002464  00000+0  18457-3 0  9991
2 46506  97.7258 172.3531 0010725 121.5091 238.7184 15.03610909103727
NETSAT-2                
1 46507U 20068X   22232.77615314  .00003216  00000+0  23968-3 0  9995
2 46507  97.7254 172.2886 0009721 128.0678 232.1429 15.03589753103668
SAI-1 NANOCONNECT-2     
1 47701U 21015C   22232.74822017  .00009428  00000+0  34244-3 0  9992
2 47701  97.4200 309.4062 0010104 219.9371 140.1127 15.28465322 82032
BEESAT-6                
1 47957U 21022AB  22232.53647198  .00005860  00000+0  37015-3 0  9990
2 47957  97.5192 130.8958 0018704 290.4295 192.3607 15.09294851 77468
SMOG-1                  
1 47964U 21022AJ  22232.70331619  .00004839  00000+0  29495-3 0  9993
2 47964  97.5226 132.2416 0016215 276.4534  83.4849 15.10726716 76586
MMSATS-1                
1 47976U 98067SJ  22232.96477361  .00027200  00000+0  31335-3 0  9995
2 47976  51.6411   0.3247 0001304 267.4118 192.7717 15.61756249 80330
BCCSAT-1                
1 48041U 21022AK  22232.65929685  .00005016  00000+0  31358-3 0  9999
2 48041  97.5235 131.7401 0013032 274.8933  85.0809 15.09821124 76525
BEESAT-5                
1 48083U 21022AM  22232.70858050  .00006147  00000+0  38619-3 0  9991
2 48083  97.5169 131.0718 0018502 289.4623 123.9386 15.09478105 76626
BEESAT-7                
1 48084U 21022AN  22232.71659020  .00006053  00000+0  38156-3 0  9991
2 48084  97.5216 131.0854 0018261 288.6536 130.5156 15.09367628 76218
BEESAT-8                
1 48085U 21022AP  22232.53340659  .00005407  00000+0  34222-3 0  9999
2 48085  97.5202 130.8956 0018539 290.3168 193.1096 15.09258754 76748
RAMSAT                  
1 48850U 98067SL  22232.60315623  .00120620  00000+0  58996-3 0  9992
2 48850  51.6363 347.5351 0005263 324.4710  35.5941 15.81405366 67443
BD-28                   
1 48867U 98067SN  22232.45096394  .00276953  40266-4  78391-3 0  9999
2 48867  51.6232 342.5920 0007932 333.3812  26.6787 15.92876294 66240
BINAR-1                 
1 49272U 98067SR  22232.45957969  .00178692  00000+0  76998-3 0  9993
2 49272  51.6308 351.7644 0004490 307.6299  52.4296 15.83931000 49766
CUAVA-1                 
1 49275U 98067SU  22232.82575494  .00733370  28311-3  95384-3 0  9995
2 49275  51.6240 342.6221 0011317 327.8858 121.3282 16.06305607 49861
HSU-SAT1                
1 53462U 98067UB  22226.74141404  .00026381  00000+0  45171-3 0  9999
2 53462  51.6419  46.4994 0007959 141.3301 313.6344 15.51016320   375
FUTABA                  
1 53463U 98067UC  22226.74417056  .00032628  00000+0  55523-3 0  9992
2 53463  51.6435  46.4830 0007849 138.2377 332.5144 15.51075903   379
TUMNANOSAT              
1 53464U 98067UD  22226.73602287  .00035547  00000+0  60268-3 0  9999
2 53464  51.6409  46.5226 0007902 141.9590 283.7101 15.51135793   373
BEIJING 1               
1 28890U 05043A   22232.89982245  .00000145  00000+0  38727-4 0  9997
2 28890  98.1254 354.1434 0014713 337.6216  22.4338 14.61479586896552
HJ-1A                   
1 33320U 08041A   22232.67363874  .00000315  00000+0  50455-4 0  9990
2 33320  97.6738 262.7103 0021866  26.8112 333.4219 14.77893791751876
HJ-1B                   
1 33321U 08041B   22232.69137291  .00000718  00000+0  10577-3 0  9992
2 33321  97.6909 266.4220 0035450  43.0688 317.3280 14.77830730751874
YAOGAN 4                
1 33446U 08061A   22232.85418417  .00000358  00000+0  57333-4 0  9994
2 33446  97.8185 171.0322 0014808 287.6584  72.3010 14.77437502739100
DEIMOS-1                
1 35681U 09041A   22232.69844583  .00000204  00000+0  39819-4 0  9994
2 35681  97.7090  80.4585 0002501  51.4333 308.7105 14.72091714701226
UK-DMC 2                
1 35683U 09041C   22232.81982156  .00000359  00000+0  65274-4 0  9994
2 35683  97.7030  42.4267 0001893  79.3315 280.8111 14.71466449700977
RISAT 1                 
1 38248U 12017A   22232.91890953  .00002675  00000+0  15828-3 0  9997
2 38248  97.5532 243.5919 0005178  54.3815 305.7897 15.12290422568565
DMC3-FM1                
1 40715U 15032A   22232.87197974  .00000299  00000+0  44042-4 0  9998
2 40715  97.8380 118.3991 0005117 323.1106  36.9761 14.82170166382838
DMC3-FM2                
1 40716U 15032B   22232.89481657  .00000300  00000+0  44241-4 0  9999
2 40716  97.8424 119.0973 0007070 322.2856  37.7860 14.82162243382845
DMC3-FM3                
1 40717U 15032C   22232.91669854  .00000303  00000+0  44623-4 0  9997
2 40717  97.8455 120.0573 0008962 318.2162  41.8369 14.82190182382847
NOAA 15                 
1 25338U 98030A   22232.82551814  .00000091  00000+0  56331-4 0  9997
2 25338  98.6412 261.5091 0011528 108.5535 251.6899 14.26162820262441
DMSP 5D-3 F15 (USA 147) 
1 25991U 99067A   22232.89211104  .00000089  00000+0  67692-4 0  9994
2 25991  99.0565 225.5799 0010367  12.3134  47.0909 14.16562229172896
METEOSAT-8 (MSG-1)      
1 27509U 02040B   22232.71021931  .00000128  00000+0  00000+0 0  9993
2 27509   8.1537  50.2967 0001505 124.6409  91.1763  1.00269209 73258
DMSP 5D-3 F16 (USA 172) 
1 28054U 03048A   22232.93171446  .00000025  00000+0  37085-4 0  9993
2 28054  98.9924 224.0850 0008123 129.1437 291.4608 14.13678632972148
NOAA 18                 
1 28654U 05018A   22232.86768254  .00000092  00000+0  73759-4 0  9991
2 28654  98.9454 303.2422 0014974 146.4839 213.7283 14.12766315889076
METEOSAT-9 (MSG-2)      
1 28912U 05049B   22232.73080942  .00000121  00000+0  00000+0 0  9996
2 28912   6.1602  65.8809 0000896 194.8588  17.0850  1.00268354 61031
EWS-G1 (GOES 13)        
1 29155U 06018A   22232.87739324  .00000032  00000+0  00000+0 0  9994
2 29155   0.7510  96.4639 0005709 102.6412 147.3296  1.00275184 29372
DMSP 5D-3 F17 (USA 191) 
1 29522U 06050A   22232.88974457  .00000029  00000+0  38095-4 0  9993
2 29522  98.7668 246.7357 0011045  79.4589 280.7828 14.14106703815010
FENGYUN 3A              
1 32958U 08026A   22232.85761736  .00000053  00000+0  45686-4 0  9997
2 32958  98.5074 192.8739 0008383 189.4152 170.6868 14.18733957737352
FENGYUN 2E              
1 33463U 08066A   22232.70119146 -.00000209  00000+0  00000+0 0  9999
2 33463   6.0439  64.9353 0002909  23.7457 219.3361  1.00267004 50089
NOAA 19                 
1 33591U 09005A   22232.87625123  .00000104  00000+0  81111-4 0  9990
2 33591  99.1442 268.3538 0014018  11.6179 348.5313 14.12600256697282
GOES 14                 
1 35491U 09033A   22232.62904660 -.00000097  00000+0  00000+0 0  9996
2 35491   0.4646  94.2085 0014943 119.1143 237.5218  1.00272695 48106
METEOR-M 1              
1 35865U 09049A   22232.90364466  .00000057  00000+0  44839-4 0  9991
2 35865  98.5335 201.3114 0003247  55.3700 304.7784 14.22350852670851
DMSP 5D-3 F18 (USA 210) 
1 35951U 09057A   22232.96016065  .00000163  00000+0  10933-3 0  9996
2 35951  98.7272 210.7717 0009835 263.3362  96.6691 14.13542158662224
